STARLINK-5195           
1 54051U 22136A   22321.91667824 -.00054007  00000+0 -94876-3 0  9996
2 54051  53.2159   9.0219 0001951  43.5219 135.3606 15.49924527  1309
STARLINK-5189           
1 54052U 22136B   22321.91667824 -.00045479  00000+0 -32118-3 0  9991
2 54052  53.2167   7.3936 0002842   9.1661 252.7377 15.73207381  1303
STARLINK-5176           
1 54053U 22136C   22321.91667824  .00024929  00000+0  44593-3 0  9997
2 54053  53.2160   9.0191 0001871  39.7743 140.8524 15.49874904  1305
STARLINK-5163           
1 54054U 22136D   22322.25001157 -.00010012  00000+0 -16843-3 0  9994
2 54054  53.2155   7.4148 0002067  50.5431 195.3251 15.49922058  5004
STARLINK-5158           
1 54055U 22136E   22321.91667824 -.00001059  00000+0 -10693-4 0  9995
2 54055  53.2160   9.0135 0001949  41.0349 142.0062 15.49875383  1302
STARLINK-5226           
1 54056U 22136F   22321.91667824 -.00012584  00000+0 -21417-3 0  9996
2 54056  53.2155   9.0055 0001635  43.4425 143.1628 15.49876334  1308
STARLINK-5216           
1 54057U 22136G   22322.25001157  .00004617  00000+0  52535-4 0  9998
2 54057  53.2157   6.8395 0003092  62.2044 111.1857 15.64551885  5006
STARLINK-5167           
1 54058U 22136H   22321.91667824  .00024878  00000+0  44515-3 0  9999
2 54058  53.2151   8.9910 0001698  46.0898 146.1290 15.49867374  4952
STARLINK-5173           
1 54059U 22136J   22321.91667824  .00024875  00000+0  44544-3 0  9999
2 54059  53.2157   8.9983 0001406  67.9704 122.3343 15.49845890  4958
STARLINK-5169           
1 54060U 22136K   22321.91667824 -.00030498  00000+0 -21345-3 0  9995
2 54060  53.2134   7.0248 0002827  21.8078  55.8354 15.73216660  4978
STARLINK-5209           
1 54061U 22136L   22321.91667824 -.00463617  00000+0 -21654-2 0  9991
2 54061  53.2175   5.9755 0008097 268.9321 329.2208 15.83624050  4999
STARLINK-5170           
1 54062U 22136M   22321.91667824  .00014628  00000+0  26486-3 0  9993
2 54062  53.2160   8.9898 0001144 119.0539  75.4319 15.49921114  4950
STARLINK-5225           
1 54063U 22136N   22322.25001157 -.00111586  00000+0 -19798-2 0  9993
2 54063  53.2157   7.3917 0002214  48.7782 208.5128 15.49972794  5003
STARLINK-5172           
1 54064U 22136P   22321.91667824 -.00033168  00000+0 -23268-3 0  9992
2 54064  53.2136   7.7663 0004076   2.4899  73.9566 15.73200342  4961
STARLINK-5187           
1 54065U 22136Q   22321.91667824  .00024582  00000+0  43960-3 0  9992
2 54065  53.2160   8.9783 0001691  34.8490 165.2216 15.49891414  1302
STARLINK-5151           
1 54066U 22136R   22321.91667824  .00024592  00000+0  44002-3 0  9992
2 54066  53.2157   8.9820 0002018  41.2307 157.0696 15.49874814  4954
STARLINK-5174           
1 54067U 22136S   22322.25001157 -.00026290  00000+0 -45672-3 0  9995
2 54067  53.2164   7.3804 0001865  39.9569 224.7076 15.49887763  5009
STARLINK-5222           
1 54068U 22136T   22321.91667824  .00024396  00000+0  43635-3 0  9997
2 54068  53.2157   8.9744 0001245 120.6822  80.9322 15.49891103  4956
STARLINK-5223           
1 54069U 22136U   22321.91667824  .00024535  00000+0  43861-3 0  9994
2 54069  53.2158   8.9565 0001776  45.8747 164.9271 15.49901540  4955
STARLINK-5181           
1 54070U 22136V   22322.25001157  .00079429  00000+0  14009-2 0  9998
2 54070  53.2172   7.3707 0002006  37.0755 229.5296 15.49728711  5002
STARLINK-5168           
1 54071U 22136W   22321.91667824  .00002894  00000+0  58968-4 0  9996
2 54071  53.2156   8.9587 0001649  41.6050 167.7587 15.49864594  1304
STARLINK-5144           
1 54072U 22136X   22321.91667824  .00024474  00000+0  43792-3 0  9993
2 54072  53.2162   8.9650 0001914  44.8259 162.6489 15.49876888  4952
STARLINK-5146           
1 54073U 22136Y   22321.91667824 -.01175016  00000+0 -10203-1 0  9995
2 54073  53.2172   7.8120 0006959 271.6010 143.8455 15.71265929  1306
STARLINK-5192           
1 54074U 22136Z   22321.91667824  .00024757  00000+0  44277-3 0  9998
2 54074  53.2163   8.9528 0001490  46.0883 166.9329 15.49884258  4955
STARLINK-5212           
1 54075U 22136AA  22321.91667824 -.01148870  00000+0 -99483-2 0  9993
2 54075  53.2173   7.8110 0006974 272.3782 143.7314 15.71265960  4962
STARLINK-5201           
1 54076U 22136AB  22321.91667824  .00024190  00000+0  43308-3 0  9995
2 54076  53.2163   8.9493 0001902  49.1851 165.6250 15.49868873  4959
STARLINK-5171           
1 54077U 22136AC  22321.91667824 -.00040976  00000+0 -28878-3 0  9993
2 54077  53.2151   7.8067 0003622   9.4601  51.4835 15.73202669  4969
STARLINK-5138           
1 54078U 22136AD  22322.25001157  .00022162  00000+0  16183-3 0  9994
2 54078  53.2159   6.1585 0003995  10.9473 138.3094 15.73206120  5017
STARLINK-5175           
1 54079U 22136AE  22321.91667824 -.00039904  00000+0 -28079-3 0  9997
2 54079  53.2155   7.8064 0003671  14.8072  46.6488 15.73226117  4962
STARLINK-5160           
1 54080U 22136AF  22322.25001157 -.01145172  00000+0 -10265-1 0  9990
2 54080  53.2175   6.1648 0005517 270.5789 232.2954 15.70466331  5012
STARLINK-5165           
1 54081U 22136AG  22321.91667824 -.00018224  00000+0 -12563-3 0  9993
2 54081  53.2149   7.8014 0003329   4.3880  58.3528 15.73202583  4960
STARLINK-5210           
1 54082U 22136AH  22322.16667824 -.00225568  00000+0 -16384-2 0  9997
2 54082  53.2162   6.5634 0003480  10.1454  28.6417 15.73298611  5000
STARLINK-5178           
1 54083U 22136AJ  22321.91667824  .00026811  00000+0  19506-3 0  9998
2 54083  53.2150   7.7983 0003416   7.9884  57.1529 15.73169263  4963
STARLINK-5183           
1 54084U 22136AK  22322.25001157 -.00075187  00000+0 -53475-3 0  9993
2 54084  53.2152   6.1526 0003773   3.9138 148.2625 15.73246125  5015
STARLINK-5166           
1 54085U 22136AL  22321.91667824 -.00158023  00000+0 -11382-2 0  9996
2 54085  53.2159   7.7940 0003462   7.1387  58.5426 15.73282194  4957
STARLINK-5211           
1 54086U 22136AM  22321.91667824  .00028786  00000+0  20895-3 0  9997
2 54086  53.2152   7.8011 0003984 358.7083  65.2358 15.73178889  4952
STARLINK-5184           
1 54087U 22136AN  22321.91667824 -.00008012  00000+0 -52607-4 0  9997
2 54087  53.2152   7.7967 0003733   5.8553  60.4236 15.73226999  4954
STARLINK-5153           
1 54088U 22136AP  22322.25001157  .00081467  00000+0  57897-3 0  9995
2 54088  53.2163   6.1468 0003661  10.6209 142.6574 15.73205834  5008
STARLINK-5143           
1 54089U 22136AQ  22322.25001157 -.00077726  00000+0 -55390-3 0  9997
2 54089  53.2148   6.1438 0004216   1.1787 155.8567 15.73210365  5005
STARLINK-5177           
1 54090U 22136AR  22321.91667824  .00075840  00000+0  54098-3 0  9997
2 54090  53.2150   7.7928 0003219   4.2299  63.2755 15.73149439  4952
STARLINK-5221           
1 54091U 22136AS  22321.91667824 -.00017793  00000+0 -12248-3 0  9994
2 54091  53.2155   7.7913 0004087 358.0203  71.8833 15.73208809  4950
STARLINK-5190           
1 54092U 22136AT  22322.16667824  .00008337  00000+0  63843-4 0  9993
2 54092  53.2159   6.5597 0003766   4.9448  38.6165 15.73169839  4993
STARLINK-5213           
1 54093U 22136AU  22321.91667824 -.00007265  00000+0 -47278-4 0  9991
2 54093  53.2150   7.7879 0003871  12.8341  57.5768 15.73227724  4951
STARLINK-5219           
1 54094U 22136AV  22321.91667824  .00060372  00000+0  43161-3 0  9994
2 54094  53.2160   7.7929 0003448   6.8570  61.8048 15.73188085  1307
STARLINK-5193           
1 54095U 22136AW  22321.91667824 -.00012254  00000+0 -82886-4 0  9991
2 54095  53.2151   7.7867 0004030 357.2854  74.3786 15.73216352  1302
STARLINK-5188           
1 54096U 22136AX  22321.91667824 -.00034093  00000+0 -23930-3 0  9991
2 54096  53.2152   7.7906 0003130   8.9410  60.2875 15.73208974  4954
STARLINK-5197           
1 54097U 22136AY  22321.91667824 -.00035199  00000+0 -24702-3 0  9998
2 54097  53.2143   7.7422 0003373   4.6219  86.8001 15.73227843  4958
STARLINK-5217           
1 54098U 22136AZ  22321.91667824  .00057716  00000+0  41356-3 0  9990
2 54098  53.2155   7.7869 0002943  15.1571  57.1149 15.73154942  4950
STARLINK-5198           
1 54099U 22136BA  22321.91667824  .00069069  00000+0  49358-3 0  9995
2 54099  53.2153   7.7817 0003560   2.9450  71.0666 15.73143034  4957
STARLINK-5185           
1 54100U 22136BB  22322.25001157 -.00090225  00000+0 -64530-3 0  9996
2 54100  53.2154   6.1382 0002994  12.2996 147.6804 15.73194434  5001
STARLINK-5204           
1 54101U 22136BC  22322.25001157 -.00059225  00000+0 -41990-3 0  9997
2 54101  53.2160   6.1336 0003901   9.3538 154.2300 15.73221938  5001
STARLINK-5179           
1 54102U 22136BD  22321.91667824 -.00002368  00000+0 -12415-4 0  9996
2 54102  53.2148   7.7813 0003424   6.6454  66.7380 15.73216430  4951
STARLINK-5200           
1 54103U 22136BE  22321.91667824  .00071144  00000+0  50781-3 0  9990
2 54103  53.2145   7.7760 0003076  10.8192  64.3973 15.73160438  1303
STARLINK-5203           
1 54104U 22136BF  22321.91667824 -.00042894  00000+0 -30233-3 0  9993
2 54104  53.2153   7.7782 0003171  10.3570  65.4249 15.73224605  4957
COSMOS 2561             
1 54109U 22137A   22321.89071655  .00012296  00000+0  20800-3 0  9997
2 54109  97.0758  41.5224 0009264 162.9168 197.2399 15.51666527  4197
COSMOS 2562             
1 54110U 22137B   22321.92200127  .00017934  00000+0  23755-3 0  9997
2 54110  97.1006  41.6382 0005217 227.9701 132.1112 15.58327579  4202
ONEWEB-0490             
1 54113U 22138A   22322.25001157 -.00954106  00000+0 -14635+0 0  9996
2 54113  87.4540 208.3491 0012149 184.3582 263.0658 14.76779763  4808
ONEWEB-0492             
1 54114U 22138B   22322.25001157 -.00934412  00000+0 -14024+0 0  9997
2 54114  87.4497 208.3554 0013391 190.9273 210.5649 14.77623902  4801
ONEWEB-0495             
1 54115U 22138C   22321.91667824 -.00972587  00000+0 -16129+0 0  9992
2 54115  87.4398 208.4826 0013694 210.8676  74.6524 14.73484065  4756
